[{"Name": "CROSSROADS BAPTIST CHURCH", "Pastor": "PASTOR KENNY BALDWIN", "zip": "22041", "tags": "KJB,UNAFFILIATED", "city": "COEBA (CONFERENCE ON E", "web1": "http://www.ourcrossroads.org", "Distance": "4.988729919674641"}, {"Name": "CHERRYDALE BAPTIST CHURCH", "Pastor": "PASTOR R STEVEN KING", "zip": "22207", "tags": "NOT KJV ONLY", "city": "ARLINGTON ", "web1": "http://www.cherrydale.org", "Distance": "5.0629081692395355"}, {"Name": "FAITH BAPTIST CHURCH", "Pastor": "PASTOR DAVID MATHEWS", "zip": "22180", "tags": "NOT KJV ONLY, GARBC", "city": "VIENNA ", "web1": "http://believegrowchange.org", "Distance": "6.378891535984649"}, {"Name": "CAPITAL BAPTIST CHURCH", "Pastor": "PASTOR STEVE REYNOLDS", "zip": "22003", "tags": "NOT KJV ONLY,LIBERTY-", "city": "ANNANDALE ", "web1": "http://www.capitalbaptist.org", "Distance": "6.777411714648166"}, {"Name": "MARANATHA BAPTIST CHURCH", "Pastor": "PASTOR BRIAN WEBB", "zip": "22003", "tags": "NOT KJV ONLY,DBF", "city": "ANNANDALE ", "web1": "http://www.lordcomes.org", "Distance": "6.777411714648166"}, {"Name": "FAITH BAPTIST CHURCH", "Pastor": "PASTOR DR LEO DELORGE", "zip": "22182", "tags": "KJB", "city": "BEALETON ", "web1": "http://www.christianacres.com", "Distance": "8.714462660040832"}, {"Name": "CALVARY BAPTIST CHURCH", "Pastor": "PASTOR MICHAEL WALTERS", "zip": "22302", "tags": "KJB", "city": "BAILEYS CROSSROADS ", "web1": "http://www.calvarybaptistofalexandria.com", "Distance": "10.155690882305471"}, {"Name": "FELLOWSHIP BAPTIST CHURCH", "Pastor": "PASTOR CHRIS MANN", "zip": "22124", "tags": "KJB,BBF,AIBF", "city": "OAKTON ", "web1": "http://www.fbcministries.net", "Distance": "12.386042177398373"}, {"Name": "ROSE HILL BAPTIST CHURCH", "Pastor": "PASTOR EMORY PAT UPSHAW", "zip": "22310", "tags": "KJB,BBF", "city": "ALEXANDRIA ", "web1": "http://www.rhbaptist.net", "Distance": "12.93003736384773"}, {"Name": "CALVARY ROAD BAPTIST CHURCH", "Pastor": "PASTOR DR DAVID M RHODENHIZER", "zip": "22310", "tags": "PREACH NKJV & KJV,BBF,FALWELL", "city": "CAL", "web1": "http://www.crbc.org", "Distance": "12.93003736384773"}, {"Name": "LIGHTHOUSE BAPTIST CHURCH", "Pastor": "PASTOR PHILIP BISHOP", "zip": "22310", "tags": "KJB,UNAFFILIATED", "city": "ALEXANDRIA ", "web1": "http://www.lbcforyou.com", "Distance": "12.93003736384773"}, {"Name": "FAIRFAX BAPTIST TEMPLE", "Pastor": "PASTOR TODD ABBEY", "zip": "22039", "tags": "KJB", "city": "FAIRFAX STATION ", "web1": "http://www.FBTministries.org", "Distance": "17.718836010341764"}, {"Name": "TEMPLE BAPTIST CHURCH", "Pastor": "PASTOR DAVID L PITTMAN", "zip": "20170", "tags": "KJB,BIMI,FBWWM", "city": "HERNDON ", "web1": "http://www.templebaptistchurch.org", "Distance": "19.54298636889266"}, {"Name": "ENGLESIDE BAPTIST CHURCH", "Pastor": "PASTOR BRAD LAPISKA", "zip": "22309", "tags": "NKJV,BBF,BJU", "city": "ALEXANDRIA ", "web1": "http://www.ebcecs.com", "Distance": "19.55154149062799"}, {"Name": "COMMUNITY BAPTIST CHURCH", "Pastor": "PASTOR MIKE AYLESTOCK", "zip": "20152", "tags": "KJB, UNAFFILIATED", "city": "NEAR DULLES AIRPORT (CHANTILLY ", "web1": "http://www.cbc4me.org", "Distance": "28.505210949245804"}, {"Name": "CALVARY BAPTIST CHURCH", "Pastor": "PASTOR VICTOR STANLEY", "zip": "22191", "tags": "NOT KJV ONLY", "city": "WOODBRIDGE ", "web1": "http://calvarybaptistonline.org", "Distance": "28.8292079145812"}, {"Name": "EVANGEL BAPTIST CHURCH", "Pastor": "PASTOR BARNES", "zip": "22193", "tags": "KJV, PCC", "city": "DALE CITY ", "web1": "http://www.ebcdalecity.org", "Distance": "30.451839241386264"}, {"Name": "HERITAGE BAPTIST CHURCH", "Pastor": "PASTOR MICHAEL E EDWARDS", "zip": "22193", "tags": "KJB, CROWN BC, WEST COAST BC, PCC, BJU", "city": "WOODBRIDGE ", "web1": "http://www.visitheritage.com", "Distance": "30.451839241386264"}, {"Name": "CENTRAL BAPTIST CHURCH", "Pastor": "PASTOR DR BRAD WENIGAR", "zip": "22193", "tags": "KJB,UNAFFILIATED", "city": "WOODBRIDGE ", "web1": "http://cbcwoodbridge.org", "Distance": "30.451839241386264"}, {"Name": "BEREAN BAPTIST CHURCH", "Pastor": "PASTOR CHRIS ELLIS", "zip": "20110", "tags": "NOT KJV ONLY,GARBC,PRACT.-", "city": "MANASSAS ", "web1": "", "Distance": "30.663347909279583"}, {"Name": "BATTLEFIELD BAPTIST CHURCH", "Pastor": "PASTOR GREG CORCORAN", "zip": "20156", "tags": "NOT KJV ONLY", "city": "WARRENTON ", "web1": "http://www.battlefieldbaptist.org", "Distance": "30.79843442045159"}, {"Name": "FAITHWAY BAPTIST CHURCH", "Pastor": "PASTOR BARNABUS SCHWANKE", "zip": "20177", "tags": "KJB", "city": "LEESBURG ", "web1": "http://www.faithwaybaptistchurch.com", "Distance": "41.8605883051985"}, {"Name": "LOUDOUN BAPTIST TEMPLE", "Pastor": "PASTOR EUGENE W NICHOLS", "zip": "20176", "tags": "KJB,BBF", "city": "LEESBURG ", "web1": "http://www.loudounbaptist.org", "Distance": "45.065231464609234"}, {"Name": "COLONIAL BAPTIST CHURCH", "Pastor": "PASTOR MICKEY CREED", "zip": "22555", "tags": "BBF,NOT KJV ONLY", "city": "STAFFORD ", "web1": "http://cbcca.com", "Distance": "55.213972174305276"}, {"Name": "BIBLE BAPTIST CHURCH OF FREDERICKSBURG", "Pastor": "PASTOR STEPHEN ST JOHN", "zip": "22406", "tags": "KJB, RUCKMAN, PBI", "city": "FREDERICKSBURG ", "web1": "https://www.biblebaptistchurchoffredericksburg.com", "Distance": "64.14784722075296"}, {"Name": "CHOICE BAPTIST CHURCH", "Pastor": "PASTOR TIM WILCOX", "zip": "22406", "tags": "KJB,BBF", "city": "FREDERICKSBURG ", "web1": "http://www.choicebaptist.com", "Distance": "64.14784722075296"}, {"Name": "TEMPLE BAPTIST CHURCH", "Pastor": "PASTOR MICHAEL A REID", "zip": "22405", "tags": "KJB, BBF,AIBF", "city": "FREDERICKSBURG ", "web1": "http://www.abouttbc.org", "Distance": "64.9944928591149"}, {"Name": "TABERNACLE BAPTIST CHURCH", "Pastor": "PASTOR SHERMAN E DAVIS", "zip": "22485", "tags": "KJB, AIBF", "city": "KING GEORGE ", "web1": "http://www.tbckg.org", "Distance": "67.38231872047339"}, {"Name": "KEYSTONE BAPTIST CHURCH", "Pastor": "PASTOR DOUGLAS B WRIGHT", "zip": "22611", "tags": "NOT KJV ONLY,BJU,MBBC,FBF", "city": "BERRYVILLE ", "web1": "", "Distance": "74.3423319988177"}, {"Name": "CROSSROADS BAPTIST CHURCH", "Pastor": "PASTOR KEN BIGGS", "zip": "22408", "tags": "KJB", "city": "FREDERICKSBURG ", "web1": "http://www.crossrbc.org", "Distance": "75.17612792258988"}, {"Name": "FAITH BAPTIST CHURCH", "Pastor": "PASTOR WATSON MORGAN", "zip": "22407", "tags": "KJB", "city": "FREDERICKSBURG ", "web1": "http://www.fbcnet.org", "Distance": "75.65648300339028"}, {"Name": "HOPE HILL BAPTIST CHURCH", "Pastor": "PASTOR JOHN LINES", "zip": "22746", "tags": "BBF", "city": "CASTLETON ", "web1": "http://www.hopehillbaptistchurch.org", "Distance": "78.01565175536545"}, {"Name": "FIRST CENTURY BAPTIST CHURCH", "Pastor": "PASTOR TIM ATKINS", "zip": "22726", "tags": "KJB", "city": "LIGNUM ", "web1": "http://www.faithbaptistlignum.com", "Distance": "78.44542247628321"}, {"Name": "CALVARY INDEPENDENT BAPTIST CHURCH", "Pastor": "PASTOR RON W OWENS", "zip": "22553", "tags": "KJB", "city": "SPOTSYL", "web1": "http://www.clvry.org", "Distance": "79.37722284880478"}, {"Name": "FLAT RUN BAPTIST CHURCH", "Pastor": "PASTOR RYAN J FLANDERS", "zip": "22508", "tags": "KJB,AIBF", "city": "LOCUST GROVE ", "web1": "http://www.flatrunbaptist.com", "Distance": "79.87400708917097"}, {"Name": "WESTMORELAND INDEPENDENT BAPTIST CHURCH", "Pastor": "PASTOR ROBERT L WARNICK", "zip": "22443", "tags": "KJB,AIBF,WEST COAST-", "city": "COLONIAL BEACH ", "web1": "http://www.wibcministries.org", "Distance": "80.16734585858127"}, {"Name": "BIBLE BAPTIST CHURCH", "Pastor": "PASTOR BRUCE FINCHAM", "zip": "22701", "tags": "KJB,AIBF", "city": "CULPEPER ", "web1": "http://www.biblebaptistculpeper.org", "Distance": "81.86186294009948"}, {"Name": "CALVARY BAPTIST CHURCH", "Pastor": "PASTOR ARCHIE SEALE", "zip": "22701", "tags": "KJB,ROCK OF AGES PRISION MINISTRY", "city": "CULPEPER ", "web1": "", "Distance": "81.86186294009948"}, {"Name": "GREEN VALLEY BAPTIST CHURCH", "Pastor": "PASTOR TIM KIRCHOFF", "zip": "22630", "tags": "KJB,HYLES", "city": "FRONT ROYAL ", "web1": "", "Distance": "86.59816389986058"}, {"Name": "AMBASSADOR BAPTIST CHURCH", "Pastor": "PASTOR MICHAEL E MCGEE", "zip": "22580", "tags": "KJV,AIBF", "city": "WOODFORD ", "web1": "http://ambassadorbapt.org", "Distance": "91.87996139185427"}, {"Name": "FAITH BIBLE BAPTIST CHURCH", "Pastor": "PASTOR GRAYSON DELANO", "zip": "22567", "tags": "KJB,BBFI,AIBF,", "city": "UNIONVILLE ", "web1": "http://www.faithbiblebaptistchurch.org", "Distance": "96.48926040335894"}, {"Name": "EMMANUEL BAPTIST CHURCH", "Pastor": "PASTOR STEVE REBERT", "zip": "22603", "tags": "KJB", "city": "WINCHESTER ", "web1": "http://www.ebcwinchester.org", "Distance": "97.4847169732579"}, {"Name": "LIGHTHOUSE BAPTIST CHURCH", "Pastor": "PASTOR DAVID K MARTIN", "zip": "22603", "tags": "KJB,UNAFFILIATED", "city": "WINCHESTER ", "web1": "http://lighthousewinc.com", "Distance": "97.4847169732579"}, {"Name": "GREENWOOD BAPTIST CHURCH", "Pastor": "PASTOR CARL MENEFEE", "zip": "22602", "tags": "NOT KJV ONLY", "city": "WINCHESTER ", "web1": "http://www.gbcva.org", "Distance": "98.55470123112318"}, {"Name": "GRACE BAPTIST CHURCH", "Pastor": "PASTOR TROY L THACKER", "zip": "22960", "tags": "BBF,BJU,AIBF", "city": "ORANGE ", "web1": "", "Distance": "105.64269692649779"}, {"Name": "VICTORY BAPTIST CHURCH", "Pastor": "PASTOR TODD BROWN", "zip": "22572", "tags": "KJB", "city": "WARSAW ", "web1": "http://vbcwarsaw.com", "Distance": "108.05205388447445"}, {"Name": "FELLOWSHIP BAPTIST CHURCH", "Pastor": "PASTOR DALE FREEMAN", "zip": "22727", "tags": "KJB", "city": "MADISON ", "web1": "http://www.fellowshipbaptistofmadison.com", "Distance": "112.73176332338694"}, {"Name": "OAK PARK ROAD BAPTIST CHURCH", "Pastor": "PASTOR RUSSELL \u201cRUSTY\u201d W BIBER", "zip": "22727", "tags": "KJB,HYLES", "city": "MADISON ", "web1": "", "Distance": "112.73176332338694"}, {"Name": "ANTIOCH INDEPENDENT BIBLE CHURCH", "Pastor": "PASTOR FRANK PAINTER", "zip": "22835", "tags": "KJB", "city": "LURAY ", "web1": "http://antiochluray.org", "Distance": "113.84651786904546"}, {"Name": "PAGE VALLEY BAPTIST CHURCH", "Pastor": "PASTOR GARY NICHOLSON", "zip": "22835", "tags": "KJB,AIBF,AMBASSADOR-", "city": "LURAY ", "web1": "http://www.pagevalleybaptistchurch.com", "Distance": "113.84651786904546"}, {"Name": "NORTHERN NECK BAPTIST CHURCH", "Pastor": "PASTOR PATRICK MORLEY", "zip": "22435", "tags": "KJB", "city": "CALLAO ", "web1": "http://northerneckbaptist.org", "Distance": "114.00016910665443"}, {"Name": "CORNERSTONE BAPTIST CHURCH", "Pastor": "PASTOR JOHN MUNCY", "zip": "23117", "tags": "BBF", "city": "MINERAL ", "web1": "", "Distance": "115.85358242071466"}, {"Name": "BELMONT BAPTIST CHURCH", "Pastor": "PASTOR MICHAEL HARPER", "zip": "23117", "tags": "KJB", "city": "SPOTSYL", "web1": "https://www.facebook.com/belmontbaptistchurch", "Distance": "115.85358242071466"}, {"Name": "GLENORA BAPTIST CHURCH", "Pastor": "PASTOR DALLAS HAUENSTEIN", "zip": "23117", "tags": "KJB", "city": "MINERAL ", "web1": "", "Distance": "115.85358242071466"}, {"Name": "EMMANUEL BAPTIST CHURCH", "Pastor": "PASTOR J STEVEN HUFFMAN", "zip": "23117", "tags": "KJB", "city": "MINERAL ", "web1": "http://www.emmanuelbaptistmineral.com", "Distance": "115.85358242071466"}, {"Name": "GRACE BAPTIST CHURCH", "Pastor": "PASTOR KEN SPARKS", "zip": "22664", "tags": "KJB", "city": "WOODSTOCK ", "web1": "http://www.gracebaptistwoodstock.com", "Distance": "116.11058709812644"}, {"Name": "VALLEY BAPTIST CHURCH", "Pastor": "PASTOR CHAD ESTEP", "zip": "22824", "tags": "KJB", "city": "", "web1": "http://www.valleybaptistchurch.net", "Distance": "123.04162857909395"}, {"Name": "RURAL POINT BAPTIST CHURCH", "Pastor": "PASTOR GREGG PARISHER", "zip": "23116", "tags": "KJB,UNAFFILIATED", "city": "MECHANICSVILLE ", "web1": "http://www.ruralpointbaptist.com", "Distance": "135.8942717371173"}, {"Name": "BEAR LITHIA BAPTIST CHURCH", "Pastor": "PASTOR DON LEATHERMAN", "zip": "22827", "tags": "KJB", "city": "ELKTON ", "web1": "http://www.bearlithiaspringsbaptistchurch.com", "Distance": "137.05786647000255"}, {"Name": "BACON HOLLOW BAPTIST CHURCH", "Pastor": "PASTOR MALCOLM POWELL", "zip": "22935", "tags": "BBF", "city": "DYKE ", "web1": "", "Distance": "137.90517300160408"}, {"Name": "HANOVER BAPTIST CHURCH", "Pastor": "PASTOR DANIEL S MACAVOY", "zip": "23060", "tags": "AIBF,BBF,BJU", "city": "GLEN ALLEN ", "web1": "http://www.hbcva.org", "Distance": "139.43250984508893"}, {"Name": "CALVARY BAPTIST CHURCH", "Pastor": "PASTOR ERNEST HALTERMAN", "zip": "22853", "tags": "BBF", "city": "TIMBERVILLE ", "web1": "https://www.facebook.com/Calvary-", "Distance": "140.49468108825147"}, {"Name": "IMMANUEL BAPTIST CHURCH", "Pastor": "PASTOR SPARKY PRITCHARD", "zip": "23230", "tags": "ESV, BJU", "city": "RICHMOND ", "web1": "http://www.immanuelbaptist.org", "Distance": "146.43796564372985"}, {"Name": "ALBEMARLE BAPTIST CHURCH", "Pastor": "PASTOR MARCUS DELOACH", "zip": "22906", "tags": "KJB", "city": "CHARLOTTESVILLE ", "web1": "http://avenue.org/abc", "Distance": "147.4655961971123"}, {"Name": "COLONIAL BAPTIST CHURCH", "Pastor": "PASTOR EDWIN L LEAKE JR", "zip": "22903", "tags": "KJB", "city": "CHARLOTTESVILLE ", "web1": "http://colonialbaptist-", "Distance": "148.39856652333535"}, {"Name": "VICTORY BAPTIST CHURCH", "Pastor": "PASTOR J BRUCE MURRAY", "zip": "22802", "tags": "KJB,BBF", "city": "HARRISONBURG ", "web1": "", "Distance": "148.7753201512658"}, {"Name": "LANDMARK BAPTIST CHURCH", "Pastor": "PASTOR DONNIE SUMPTER", "zip": "23223", "tags": "KJB,BBF", "city": "RICHMOND ", "web1": "http://www.landmarkbaptistrichmond.org", "Distance": "149.94444885622912"}, {"Name": "PEOPLES BAPTIST CHURCH", "Pastor": "PASTOR RICHARD FORSYTHE", "zip": "22846", "tags": "KJB,IBFI", "city": "PENN LAIRD ", "web1": "http://www.peoplesbaptistonline.com", "Distance": "150.07373124335635"}, {"Name": "MARANATHA BAPTIST CHURCH", "Pastor": "INTERIM PASTOR DALE COFFEY", "zip": "23058", "tags": "KJB", "city": "RICHMOND ", "web1": "http://www.mbcrichmond.com", "Distance": "151.9953015609308"}, {"Name": "FREEDOM BAPTIST CHURCH", "Pastor": "PASTOR DALE GOODWIN", "zip": "22801", "tags": "PREACH-", "city": "HARRISONBURG ", "web1": "http://www.proclaimingfreedom.org", "Distance": "154.64789082463767"}, {"Name": "GOSPEL BAPTIST CHURCH", "Pastor": "PASTOR JEFF SMITH", "zip": "23225", "tags": "BJU", "city": "RICHMOND ", "web1": "http://www.gospelbc.com", "Distance": "154.93159638734582"}, {"Name": "BUFORD ROAD BAPTIST CHURCH", "Pastor": "PASTOR DR TONY KOHOUT", "zip": "23235", "tags": "KJB,EVAN-", "city": "RICHMOND ", "web1": "http://bufordroadbaptistchurch.com", "Distance": "156.2459271044951"}, {"Name": "SOUTHSIDE BAPTIST TEMPLE", "Pastor": "PASTOR LONNIE S STINSON", "zip": "23224", "tags": "KJB,BBF", "city": "RICHMOND ", "web1": "http://www.southsidecares.com", "Distance": "156.64734952355445"}, {"Name": "MIDLOTHIAN BAPTIST CHURCH", "Pastor": "PASTOR KEN CORNETT", "zip": "23113", "tags": "ESV, NKJV, KJV,BBFI,VA-", "city": "MIDLOTHIAN ", "web1": "http://midlothianbaptist.com", "Distance": "158.1163057741206"}, {"Name": "NEW TESTAMENT BAPTIST CHURCH", "Pastor": "PASTOR DR RICHARD CASSADA", "zip": "23113", "tags": "KJB,UNAFFILIATED", "city": "MIDLOTHIAN ", "web1": "http://ntbaptist.org", "Distance": "158.1163057741206"}, {"Name": "VICTORY BAPTIST CHURCH", "Pastor": "PASTOR MIGUEL M ACOSTA", "zip": "23228", "tags": "KJB,HYLES", "city": "RICHMOND ", "web1": "http://vbcrichmond.org", "Distance": "159.23923765370773"}, {"Name": "HOLLY HILLS BAPTIST CHURCH", "Pastor": "PASTOR RANDY BLACKWELL", "zip": "23139", "tags": "BBF,NOT KJV ONLY,", "city": "POWHATAN ", "web1": "http://www.HollyHillsBaptist.com", "Distance": "162.73326833918102"}, {"Name": "MOUNT MORIAH BAPTIST CHURCH", "Pastor": "PASTOR THOMAS ALVIS JR", "zip": "23139", "tags": "COMFORT,BJU,MTM", "city": "POWHATAN ", "web1": "http://www.mountmoriahbaptistchurch.org", "Distance": "162.73326833918102"}, {"Name": "FAITH MEMORIAL BAPTIST CHURCH", "Pastor": "PASTOR FRANK JONES", "zip": "23234", "tags": "FBF,BJU,PCC", "city": "RICHMOND ", "web1": "http://faithmemorialbaptist.org", "Distance": "163.145835109476"}, {"Name": "WALMSLEY BAPTIST CHURCH", "Pastor": "PASTOR DR DONALD A TURNER", "zip": "23234", "tags": "KJB", "city": "RICHMOND ", "web1": "https://www.facebook.com/FaithInternationalBibleCollege", "Distance": "163.145835109476"}, {"Name": "CALVARY BAPTIST CHURCH", "Pastor": "PASTOR DAVID MORRIS", "zip": "24590", "tags": "KJB,AMBASSADOR-", "city": "SCOTTSVILLE ", "web1": "", "Distance": "164.83313834236148"}, {"Name": "CALVARY BAPTIST CHURCH", "Pastor": "PASTOR RICK PHILLIPS", "zip": "23112", "tags": "BBFI,GFA,BJU", "city": "MIDLOTHIAN ", "web1": "http://www.calvarybaptistmidlo.org", "Distance": "166.97517266478445"}, {"Name": "CALVARY BAPTIST CHURCH", "Pastor": "PASTOR BEN BREWER", "zip": "23123", "tags": "KJB", "city": "CAL", "web1": "http://calvarynewcantonva.blogspot.com", "Distance": "167.87635385343776"}, {"Name": "HERITAGE BAPTIST CHURCH", "Pastor": "PASTOR DERON R JACKSON", "zip": "23832", "tags": "KJB, BBFI,VA-", "city": "CHESTERFIELD ", "web1": "http://hbcministry.net", "Distance": "169.45439378563523"}, {"Name": "HYLES BAPTIST CHURCH", "Pastor": "PASTOR RON TALLEY", "zip": "23832", "tags": "KJB, HYLES", "city": "CHESTERFIELD ", "web1": "http://hylesbaptist.com", "Distance": "169.45439378563523"}, {"Name": "GILL GROVE BAPTIST CHURCH", "Pastor": "PASTOR JOHN BROTHERS", "zip": "23832", "tags": "KJB", "city": "CHESTERFIELD ", "web1": "", "Distance": "169.45439378563523"}, {"Name": "CENTRAL BAPTIST CHURCH", "Pastor": "PASTOR VERNON R BERRY", "zip": "22980", "tags": "KJB", "city": "WAYNESBORO ", "web1": "", "Distance": "174.85893005387928"}, {"Name": "BETHEL BAPTIST CHURCH", "Pastor": "PASTOR JAMES R LUNDY JR", "zip": "22920", "tags": "KJB", "city": "AFTON ", "web1": "http://bethelbaptistministries.net", "Distance": "177.37973137870654"}, {"Name": "BIBLE BAPTIST CHURCH", "Pastor": "PASTOR SINCLAIR ROWE", "zip": "23860", "tags": "BBF", "city": "HOPEWELL ", "web1": "http://www.hopewellbbc.org", "Distance": "177.9735179465168"}, {"Name": "BROADWAY BAPTIST CHURCH", "Pastor": "PASTOR JAMES E MAGGARD & JERRY DAVIS", "zip": "23860", "tags": "KJB", "city": "HOPEWELL ", "web1": "http://broadwaybaptistministries.com", "Distance": "177.9735179465168"}, {"Name": "CRATER VIEW BAPTIST CHURCH", "Pastor": "PASTOR ELVIS \u2018RAZ\u2019 B STEPHENS", "zip": "23860", "tags": "KJB", "city": "PETERSBURG ", "web1": "http://craterviewbaptist.org", "Distance": "177.9735179465168"}, {"Name": "FAITH BAPTIST CHURCH", "Pastor": "PASTOR DR MICHAEL R PRIVETT", "zip": "23188", "tags": "PREACH KJV,NOT KJV ONLY, BJU, FBFI, AFBM, BHM", "city": "WILLIAMSBURG ", "web1": "http://www.faithbaptistwilliamsburg.org", "Distance": "178.10498633376986"}, {"Name": "MIDWAY BIBLE BAPTIST CHURCH", "Pastor": "PASTOR RICHARD OWEN", "zip": "22939", "tags": "KJB", "city": "FISHERSVILLE ", "web1": "http://www.midwaybiblebaptistchurch.com", "Distance": "180.52357171166457"}, {"Name": "CROSSROADS BAPTIST CHURCH", "Pastor": "PASTOR HEATH SPIVEY", "zip": "22939", "tags": "KJB", "city": "FISHERSVILLE ", "web1": "http://www.crossroads4me.com", "Distance": "180.52357171166457"}, {"Name": "CALVARY BAPTIST CHURCH", "Pastor": "PASTOR RAY HASKETT", "zip": "23834", "tags": "KJB, UNAFFILIATED", "city": "COLONIAL HEIGHTS ", "web1": "https://www.facebook.com/BurdensAreLifted", "Distance": "180.70955428268698"}, {"Name": "VICTORY BAPTIST CHURCH", "Pastor": "PASTOR RADER M OGDEN", "zip": "24401", "tags": "KJB,BBF,TTU", "city": "STAUNTON ", "web1": "https://www.vbcstaunton.com", "Distance": "182.87611318260403"}, {"Name": "COLONIAL INDEPENDENT BAPTIST CHURCH", "Pastor": "PASTOR DENNIS FOX", "zip": "23185", "tags": "KJB", "city": "WILLIAMSBURG ", "web1": "http://colonialibc.org", "Distance": "183.52439797386342"}, {"Name": "FAITH BAPTIST CHURCH", "Pastor": "PASTOR T SHANE BRINSON", "zip": "23875", "tags": "KJB", "city": "PRINCE GEORGE ", "web1": "http://www.faithbaptistpg.org", "Distance": "183.91379592583246"}, {"Name": "CALVARY BAPTIST CHURCH", "Pastor": "PASTOR RALPH VAN NESS", "zip": "23131", "tags": "KJB,PRE-", "city": "ORDINARY ", "web1": "", "Distance": "184.27693834633519"}, {"Name": "CENTRAL BAPTIST CHURCH", "Pastor": "PASTOR KENNETH \u201cBO\u201d HELMS", "zip": "23418", "tags": "KJB", "city": "ONLEY ", "web1": "http://www.centralbaptistva.org", "Distance": "186.99925291578015"}, {"Name": "FAITH BAPTIST CHURCH", "Pastor": "PASTOR DAVID GEORGE SR", "zip": "23418", "tags": "KJB, BBF", "city": "MELFA ", "web1": "", "Distance": "186.99925291578015"}, {"Name": "GRACE BAPTIST CHURCH", "Pastor": "PASTOR RALEIGH B NUNNALLY JR", "zip": "23803", "tags": "KJB", "city": "PETERSBURG ", "web1": "", "Distance": "187.92234779079615"}, {"Name": "VALLEY BAPTIST CHURCH", "Pastor": "PASTOR FRANK HALL", "zip": "24477", "tags": "KJB", "city": "STUARTS DRAFT ", "web1": "http://valleybaptistchurchva.org", "Distance": "187.94934727325"}, {"Name": "SANDSPRINGS BAPTIST CHURCH", "Pastor": "PASTOR DOUG COX \u00a0", "zip": "24477", "tags": "KJB", "city": "LYNDHURST ", "web1": "http://www.sandspringsbaptistchurch.zoomshare.com", "Distance": "187.94934727325"}, {"Name": "RIDGEVIEW BAPTIST CHURCH", "Pastor": "PASTOR DON MCCLURE", "zip": "24477", "tags": "KJB, BBF", "city": "STUARTS DRAFT ", "web1": "http://www.ridgeviewministries.com", "Distance": "187.94934727325"}, {"Name": "SOUTHSIDE BAPTIST CHURCH", "Pastor": "PASTOR ARTHUR LANDS", "zip": "23805", "tags": "KJB", "city": "PETERSBURG ", "web1": "http://www.southsidebaptistchurchva.com", "Distance": "190.29345170537647"}, {"Name": "HATCHER BAPTIST CHURCH", "Pastor": "PASTOR CAMERON CLOUD", "zip": "23936", "tags": "KJB,VA-", "city": "DILLWYN ", "web1": "http://nephos.wordpress.com", "Distance": "197.15540734457684"}, {"Name": "ST ANDREWS BAPTIST CHURCH", "Pastor": "PASTOR TERRY TOLLIVER", "zip": "23936", "tags": "KJB,BBF", "city": "DILLWYN ", "web1": "", "Distance": "197.15540734457684"}, {"Name": "YORK BAPTIST TEMPLE", "Pastor": "PASTOR JAMES MCBRIDE", "zip": "23692", "tags": "KJB", "city": "YORKTOWN ", "web1": "http://www.yorkbaptisttemple.com", "Distance": "201.12378552151068"}, {"Name": "CORNERSTONE BAPTIST CHURCH", "Pastor": "PASTOR BRIAN WARREN", "zip": "22976", "tags": "KJB", "city": "TYRO ", "web1": "http://www.cornerstonebaptist-", "Distance": "201.6589575596226"}, {"Name": "COLONIAL BAPTIST CHURCH OF THE PENINSULA", "Pastor": "PASTOR KENNETH COLEMAN", "zip": "23602", "tags": "NOT KJV ONLY,TTU,CCM,CONTEMPORARY SERVICES", "city": "NEWPORT NEWS ", "web1": "http://www.colonialministries.com", "Distance": "205.44695316327548"}, {"Name": "NEWPORT NEWS BAPTIST CHURCH", "Pastor": "PASTOR BEN WEBSTER", "zip": "23602", "tags": "KJB,UNAFFILIATED", "city": "NEWPORT NEWS ", "web1": "http://newportnewsbaptistchurch.com", "Distance": "205.44695316327548"}, {"Name": "CENTRAL BAPTIST CHURCH", "Pastor": "PASTOR JOHN CHARLES", "zip": "23693", "tags": "KJB", "city": "YORKTOWN ", "web1": "http://www.centralbaptistyorktown.org", "Distance": "205.97764727419184"}, {"Name": "MARANATHA BAPTIST CHURCH", "Pastor": "PASTOR DALE COFFEY", "zip": "23693", "tags": "KJB", "city": "YORKTOWN ", "web1": "http://www.maranathabaptistchurch.com", "Distance": "205.97764727419184"}, {"Name": "BIBLICAL BAPTIST CHURCH", "Pastor": "PASTOR PAUL G ROBELEN", "zip": "23901", "tags": "KJB, UNAFFILIATED", "city": "FARMVILLE ", "web1": "http://www.bbcfarmville.org", "Distance": "206.19033090964055"}, {"Name": "MARLBROOK BAPTIST CHURCH", "Pastor": "PASTOR LARRY WRIGHT", "zip": "24472", "tags": "KJB", "city": "RAPHINE ", "web1": "http://marlbrookbaptist.com", "Distance": "206.78129296439243"}, {"Name": "FAITH BAPTIST CHURCH", "Pastor": "PASTOR LEWIS F LAWSON", "zip": "23890", "tags": "KJB", "city": "WAVERLY ", "web1": "", "Distance": "206.99318725931934"}, {"Name": "VALLEY INDEPENDENT BAPTIST CHURCH", "Pastor": "PASTOR DOUG COX", "zip": "24430", "tags": "KJB", "city": "CRAIGSVILLE ", "web1": "", "Distance": "210.11671191757338"}, {"Name": "GRACE BAPTIST TEMPLE", "Pastor": "PASTOR JEREMIAH BYRD", "zip": "23824", "tags": "KJB", "city": "BLACKSTONE ", "web1": "http://www.gracebaptisttempleva.com", "Distance": "211.5853926434531"}, {"Name": "FAITH BAPTIST CHURCH", "Pastor": "PASTOR GENE BALLANCE", "zip": "23824", "tags": "KJB,BBF", "city": "COLONIAL HEIGHTS ", "web1": "https://www.facebook.com/FaithBaptistColonialHeights", "Distance": "211.5853926434531"}, {"Name": "NEW HORIZON BAPTIST CHURCH", "Pastor": "PASTOR DR P J PARKER", "zip": "23824", "tags": "KJB,HYLES", "city": "BLACKSTONE ", "web1": "http://www.revivalrd.com", "Distance": "211.5853926434531"}, {"Name": "CHARITY INDEPENDENT BAPTIST CHURCH", "Pastor": "PPASTOR BRUCE HOOSE", "zip": "23601", "tags": "KJB, UNAFFILIATED", "city": "NEWPORT NEWS ", "web1": "http://www.charityibc.org", "Distance": "212.7795559469922"}, {"Name": "BETHEL BAPTIST CHURCH", "Pastor": "PASTOR LLOYD V DONICA", "zip": "23670", "tags": "KJV,BBF,BJU", "city": "HAMPTON ", "web1": "http://www.bethelbaptistministries.org", "Distance": "213.15169836896686"}, {"Name": "GRACE BAPTIST CHURCH", "Pastor": "PASTOR DR DAVID LUETHY", "zip": "23666", "tags": "NOT KJV ONLY, BJU,PIEDMONT-", "city": "HAMPTON ", "web1": "http://gracebaptistofhampton.org", "Distance": "215.39682443337227"}, {"Name": "HARBOR BAPTIST CHURCH", "Pastor": "PASTOR C J PRATHER", "zip": "23666", "tags": "KJB", "city": "HAMPTON ", "web1": "http://www.harborbaptistchurchva.com", "Distance": "215.39682443337227"}, {"Name": "SHARON BAPTIST CHURCH", "Pastor": "PASTOR DAVID CARROLL", "zip": "23666", "tags": "KJB", "city": "HAMPTON ", "web1": "http://sharonbaptisthamptonva.com", "Distance": "215.39682443337227"}, {"Name": "HAMPTON ROADS BAPTIST CHURCH", "Pastor": "PASTOR DR ROGER E SEBRELL", "zip": "23666", "tags": "KJB,COEBA,AIBF,VA-", "city": "HAMPTON ", "web1": "http://www.hribc.com", "Distance": "215.39682443337227"}, {"Name": "BLUE RIDGE BAPTIST CHURCH", "Pastor": "PASTOR ALLAN MONFILS", "zip": "24521", "tags": "NOT KJV ONLY,BBF", "city": "AMHERST ", "web1": "https://www.facebook.com/pg/brbcamherst", "Distance": "216.85574070610653"}, {"Name": "BETHEL BAPTIST CHURCH", "Pastor": "NEEDS PASTOR", "zip": "24521", "tags": "KJB, UNAFFILIATED", "city": "AMHERST ", "web1": "http://www.bbcamherst.org", "Distance": "216.85574070610653"}, {"Name": "CALVARY BAPTIST CHURCH", "Pastor": "PASTOR DAN GRAY", "zip": "23430", "tags": "KJB,BBF", "city": "CAL", "web1": "https://calvarysmithfield.squarespace.com", "Distance": "217.06592601101624"}, {"Name": "FIRST CALVARY BAPTIST CHURCH", "Pastor": "PASTOR MARK BOYD", "zip": "23664", "tags": "KJB", "city": "HAMPTON ", "web1": "http://www.firstcalvarybaptist.org", "Distance": "217.62208933006107"}, {"Name": "SUSSEX BAPTIST CHURCH", "Pastor": "PASTOR TED PETTS", "zip": "23884", "tags": "NIV, BBF", "city": "SUSSEX ", "web1": "http://sussexbaptist.com", "Distance": "219.28163344418687"}, {"Name": "VICTORY BAPTIST CHURCH", "Pastor": "PASTOR SAMUEL E HYDE SR", "zip": "23663", "tags": "KJB", "city": "HAMPTON ", "web1": "http://www.hamptonvictorybaptist.com", "Distance": "219.49578534821575"}, {"Name": "APPOMATTOX BAPTIST TEMPLE", "Pastor": "PASTOR ALLEN GREGORY", "zip": "24522", "tags": "NOT KJV ONLY", "city": "APPOMATTOX ", "web1": "http://www.abt.instachurch.com", "Distance": "222.88180135728928"}, {"Name": "BIBLE BAPTIST CHURCH", "Pastor": "PASTOR ROBERT E LEE JR", "zip": "24522", "tags": "NOT KJV ONLY,BBF,WORD OF LIFE FELLOWSHIP", "city": "APPOMATTOX ", "web1": "http://bbcappomattox.org", "Distance": "222.88180135728928"}, {"Name": "UNITY BAPTIST CHURCH", "Pastor": "PASTOR NATHAN D WEIDMAN", "zip": "24574", "tags": "KJB,FUNDAMENTAL", "city": "AMHERST ", "web1": "http://www.unityintheword.com", "Distance": "229.27338994138012"}, {"Name": "CENTRAL BAPTIST CHURCH", "Pastor": "PASTOR ROBERT L PAUL", "zip": "23974", "tags": "KJB", "city": "VICTORIA ", "web1": "http://www.centralbaptistvictoria.com", "Distance": "230.92203969344928"}, {"Name": "FAITH BAPTIST CHURCH", "Pastor": "PASTOR BRIAN HUDSON", "zip": "24572", "tags": "NOT KJ ONLY,S-", "city": "MADISON HEIGHTS ", "web1": "https://www.facebook.com/faithbaptistchurchmh", "Distance": "232.26919926838286"}, {"Name": "TEMPLE BAPTIST CHURCH", "Pastor": "PASTOR J D SURBAUGH", "zip": "24572", "tags": "NOT KJV ONLY, BBF", "city": "MADISON HEIGHTS ", "web1": "", "Distance": "232.26919926838286"}, {"Name": "LIGHTHOUSE BAPTIST CHURCH", "Pastor": "PASTOR CAREY FORBUS", "zip": "24572", "tags": "NOT KJV ONLY, BBF, LIBERTY-", "city": "MADISON HEIGHTS ", "web1": "http://www.lighthouse4me.com", "Distance": "232.26919926838286"}, {"Name": "TRUE VINE BAPTIST CHURCH", "Pastor": "PASTOR DAVID GIBSON", "zip": "23518", "tags": "KJB", "city": "NORFOLK ", "web1": "http://truevinebaptistchurchkjv1611bible.com", "Distance": "234.34099723009257"}, {"Name": "HARBOR LIGHT BAPTIST CHURCH", "Pastor": "PASTOR JERRY H MATSON", "zip": "23508", "tags": "KJB", "city": "NORFOLK ", "web1": "http://www.harbourlightbc.org", "Distance": "235.37688448805682"}, {"Name": "NORFOLK BIBLE BAPTIST CHURCH", "Pastor": "PASTOR JAMES H BURNETT JR", "zip": "23508", "tags": "KJB", "city": "NEAR NA", "web1": "", "Distance": "235.37688448805682"}, {"Name": "THOMAS TERRACE BAPTIST CHURCH", "Pastor": "PASTOR MARK GROOMS", "zip": "24504", "tags": "BBF,NOT KJV ONLY,LIBERTY-", "city": "LYNCHBURG ", "web1": "http://www.myttbc.com", "Distance": "235.82353522006483"}, {"Name": "LITTLE CREEK BAPTIST CHURCH", "Pastor": "PASTOR WADE SMITH", "zip": "23513", "tags": "KJB", "city": "NORFOLK ", "web1": "http://littlecreekbaptistchurch.com", "Distance": "236.60588868340633"}, {"Name": "GRACE BAPTIST CHURCH", "Pastor": "PASTOR DONALD E KARNES", "zip": "23513", "tags": "PREACH-", "city": "NORFOLK ", "web1": "http://www.gracebaptistnorfolk.org", "Distance": "236.60588868340633"}, {"Name": "OCEAN PARK BAPTIST CHURCH", "Pastor": "PASTOR MARVIN BAGENT", "zip": "23455", "tags": "NOT KJV ONLY", "city": "VIRGINIA BEACH ", "web1": "", "Distance": "239.9811254106158"}, {"Name": "DIAMOND SPRINGS BAPTIST CHURCH", "Pastor": "PASTOR WARREN SKINNER", "zip": "23455", "tags": "KJB,CROWN-", "city": "VIRGINIA BEACH ", "web1": "http://www.diamondspringsbaptist.com", "Distance": "239.9811254106158"}, {"Name": "GOOD NEWS BAPTIST CHURCH", "Pastor": "PASTOR DR WALT COLES", "zip": "23321", "tags": "KJB,BBF,FBF,AFBM", "city": "CHESAPEAKE ", "web1": "http://www.goodnewsbaptist.org", "Distance": "241.1205623950866"}, {"Name": "FAITH BAPTIST CHURCH", "Pastor": "PASTOR DR CARLTON E SMITH", "zip": "23321", "tags": "KJB", "city": "CHESAPEAKE ", "web1": "http://www.faithinfo.org", "Distance": "241.1205623950866"}, {"Name": "CENTRAL BAPTIST CHURCH", "Pastor": "PASTOR TIM ROBERTSON", "zip": "23701", "tags": "NOT KJV ONLY,BBF,TTU", "city": "PORTSMOUTH ", "web1": "http://www.discovercentral.org", "Distance": "241.7003463064939"}, {"Name": "JORDAN BAPTIST CHURCH", "Pastor": "PASTOR MELVIN H CAMPBELL", "zip": "24501", "tags": "KJB", "city": "LYNCHBURG ", "web1": "http://www.jordanbaptistchurchva.com", "Distance": "242.69674600396667"}, {"Name": "IMMANUEL BAPTIST CHURCH", "Pastor": "PASTOR DONNIE STEVENS", "zip": "24501", "tags": "NOT KJ ONLY,BBF", "city": "LYNCHBURG ", "web1": "https://www.facebook.com/Immanuel-", "Distance": "242.69674600396667"}, {"Name": "EAST BROOK BAPTIST CHURCH", "Pastor": "PASTOR CURTIS WALKUP", "zip": "24501", "tags": "NOT KJV ONLY,BBF, LIBERTY", "city": "LYNCHBURG ", "web1": "https://www.facebook.com/Eastbrook-", "Distance": "242.69674600396667"}, {"Name": "TIMBERLAKE BAPTIST CHURCH", "Pastor": "PASTOR BRYAN FERRELL", "zip": "24502", "tags": "NOT KJV ONLY", "city": "LYNCHBURG ", "web1": "http://www.timberlakebaptist.org", "Distance": "244.33146883851754"}, {"Name": "CENTRAL BAPTIST CHURCH", "Pastor": "PASTOR LARRY FITZGERALD", "zip": "24502", "tags": "KJB", "city": "LYNCHBURG ", "web1": "https://www.facebook.com/CentralBaptistChurchLynchburg", "Distance": "244.33146883851754"}, {"Name": "HERITAGE BAPTIST CHURCH", "Pastor": "PASTOR NATHAN SMITH", "zip": "24502", "tags": "NOT KJV ONLY,BBF,LIBERTY-", "city": "LYNCHBURG ", "web1": "http://www.HBClynchburg.com", "Distance": "244.33146883851754"}, {"Name": "FAIRVIEW BAPTIST CHURCH", "Pastor": "PASTOR DR M LEE GODFREY", "zip": "23325", "tags": "KJB,BBF,BJU", "city": "CHESAPEAKE ", "web1": "http://www.fairview-", "Distance": "244.67496404028526"}, {"Name": "PROVIDENCE BAPTIST CHURCH", "Pastor": "PASTOR DR RON HEATH", "zip": "23325", "tags": "KJB", "city": "CHESAPEAKE ", "web1": "http://providence__baptist.tripod.com", "Distance": "244.67496404028526"}, {"Name": "EMMAUS ROAD BAPTIST CHURCH", "Pastor": "PASTOR DR JERRY PADGETT", "zip": "23325", "tags": "KJB,FBF,IBF,IFFB", "city": "NORFOLK NA", "web1": "", "Distance": "244.67496404028526"}, {"Name": "COMMUNITY BAPTIST CHURCH", "Pastor": "PASTOR DAVID NICHOLES", "zip": "23434", "tags": "NOT KJV ONLY,BBF,BJU,TTU", "city": "SUFFOLK ", "web1": "http://communitybaptistsuffolk.com", "Distance": "245.1333826056874"}, {"Name": "SUFFOLK BIBLE BAPTIST CHURCH", "Pastor": "PASTOR ANDREW LOGUE SR", "zip": "23434", "tags": "KJB, UNAFFILIATED", "city": "SUFFOLK ", "web1": "http://www.suffolkbaptistchurch.com", "Distance": "245.1333826056874"}, {"Name": "HUNTERDALE BAPTIST CHURCH", "Pastor": "PASTOR HOWARD L VINSON JR", "zip": "23851", "tags": "KJB,COMFORT", "city": "FRANKLIN ", "web1": "http://hunterdalebaptist.com", "Distance": "246.3202435248906"}, {"Name": "FAITH BAPTIST CHURCH", "Pastor": "PASTOR JOHN D KINSEY", "zip": "23847", "tags": "KJB", "city": "EMPORIA ", "web1": "https://faithbaptistemporia.com", "Distance": "246.91951391206422"}, {"Name": "WAYSIDE BAPTIST CHURCH", "Pastor": "PASTOR PAUL MITCHELL", "zip": "23323", "tags": "KJB", "city": "CHESAPEAKE ", "web1": "http://www.waysidebaptist.net", "Distance": "247.2524171145343"}, {"Name": "GENEVA PARK BAPTIST CHURCH", "Pastor": "PASTOR MIKE ELLIS", "zip": "23323", "tags": "NOT KJV ONLY,PROMISE KEEPERS", "city": "CHESAPEAKE ", "web1": "http://genevaparkministries.com", "Distance": "247.2524171145343"}, {"Name": "TEMPLE BAPTIST CHURCH", "Pastor": "NEEDS PASTOR", "zip": "23323", "tags": "KJB", "city": "CHESAPEAKE ", "web1": "http://www.tbc-", "Distance": "247.2524171145343"}, {"Name": "AVALON HILLS BAPTIST CHURCH", "Pastor": "PASTOR DAVID RIEKE", "zip": "23464", "tags": "NOT KJV ONLY,BBF", "city": "VIRGINIA BEACH ", "web1": "http://www.avalonhillsbiblechurch.com", "Distance": "248.3342949885668"}, {"Name": "TABERNACLE BAPTIST CHURCH", "Pastor": "PASTOR JAMES W BAKER", "zip": "23464", "tags": "PREACH-", "city": "VIRGINIA BEACH ", "web1": "http://www.tabernacle-", "Distance": "248.3342949885668"}, {"Name": "CLEARVIEW BAPTIST CHURCH", "Pastor": "PASTOR DR WAYNE F GREENE", "zip": "24588", "tags": "KJB,CCM", "city": "RUSTBURG ", "web1": "http://www.clearviewbaptist.ws", "Distance": "248.5319298734098"}, {"Name": "FAITH BAPTIST CHURCH", "Pastor": "PASTOR TERRY BOSTIC", "zip": "24579", "tags": "BBF", "city": "NATURAL BRIDGE STATION ", "web1": "", "Distance": "249.85225419088508"}, {"Name": "BIBLE BELIEVERS BAPTIST CHURCH", "Pastor": "PASTOR TIM MACDONALD", "zip": "23454", "tags": "KJB", "city": "VIRGINIA BEACH ", "web1": "http://www.bbbchurch.com", "Distance": "250.28533298253691"}, {"Name": "TIDEWATER BAPTIST CHURCH", "Pastor": "PASTOR CHARLES PEARSON", "zip": "23320", "tags": "KJB", "city": "CHESAPEAKE ", "web1": "http://tidewaterbaptist.org", "Distance": "253.01861929023553"}, {"Name": "PEOPLES BAPTIST CHURCH", "Pastor": "PASTOR MICHAEL L WETHERINGTON", "zip": "23320", "tags": "KJB", "city": "CHESAPEAKE ", "web1": "http://www.peoplesbaptistchurch.net", "Distance": "253.01861929023553"}, {"Name": "TRINITY BAPTIST CHURCH", "Pastor": "PASTOR NEAL A POLASKE", "zip": "23320", "tags": "KJB,AFBM", "city": "NORFOLK NA", "web1": "http://www.trinitybaptistweb.com", "Distance": "253.01861929023553"}, {"Name": "TABERNACLE BAPTIST CHURCH", "Pastor": "PASTOR JOHN JENNINGS JR", "zip": "23320", "tags": "KJB", "city": "CHESAPEAKE ", "web1": "", "Distance": "253.01861929023553"}, {"Name": "INDIAN CREEK & WELCOME INDEPENDENT BAPTIST CHURCH", "Pastor": "PASTOR DAVE CRAWFORD", "zip": "23320", "tags": "KJB", "city": "CHESAPEAKE ", "web1": "http://www.indiancreek-", "Distance": "253.01861929023553"}, {"Name": "BEREAN BAPTIST CHURCH", "Pastor": "PASTOR CHARLES ALVIS", "zip": "23827", "tags": "KJB,AMBASSADOR-", "city": "BOYKINS ", "web1": "", "Distance": "254.6968805375668"}, {"Name": "GOSPEL LIGHT BAPTIST CHURCH", "Pastor": "PASTOR SCOTT DEAN", "zip": "24550", "tags": "KJB,HYLES", "city": "EVINGTON ", "web1": "", "Distance": "254.70484455050473"}, {"Name": "GREAT HOPE BAPTIST CHURCH", "Pastor": "PASTOR JOHN W GODFREY", "zip": "23328", "tags": "KJB,AIBF", "city": "CHESAPEAKE ", "web1": "http://www.greathopebaptist.org", "Distance": "254.71348381427742"}, {"Name": "GRACE BAPTIST TEMPLE", "Pastor": "PASTOR MATT NETTESHEIM", "zip": "23327", "tags": "KJB", "city": "CHESAPEAKE ", "web1": "http://gracebaptistchesapeake.org", "Distance": "254.71348381427742"}, {"Name": "IMMANUEL BAPTIST CHURCH", "Pastor": "PASTOR JOHN GODFREY JR", "zip": "24422", "tags": "KJB", "city": "CLIFTON FORGE ", "web1": "http://www.immanuelbaptistchurchofcf.com", "Distance": "257.73363864889944"}, {"Name": "SOUTHSIDE BAPTIST CHURCH", "Pastor": "PASTOR CURTIS NEWCOMB", "zip": "23950", "tags": "KJB", "city": "LA CROSSE ", "web1": "http://southsideibc.org", "Distance": "259.5406058662237"}, {"Name": "VALLEY VIEW BAPTIST CHURCH", "Pastor": "PASTOR DANIEL BOONE", "zip": "24066", "tags": "KJB,BBF", "city": "BUCHANAN ", "web1": "http://www.valleyviewbc.net", "Distance": "266.5537558860787"}, {"Name": "GRACE MEMORIAL BAPTIST CHURCH", "Pastor": "PASTOR GREG A ROGERS", "zip": "24523", "tags": "NOT KJV ONLY,BJU,BBF", "city": "BEDFORD ", "web1": "http://gmbcbedford.org", "Distance": "269.9397165847725"}, {"Name": "CALVARY BAPTIST CHURCH", "Pastor": "PASTOR JOHN HESTER", "zip": "24523", "tags": "KJB,BBF", "city": "BEDFORD ", "web1": "https://www.calvarybaptistbedford.org", "Distance": "269.9397165847725"}, {"Name": "FAITH BAPTIST CHURCH", "Pastor": "PASTOR BILLY PRICE", "zip": "24426", "tags": "NOT KJV ONLY, BBF, PROMISE-", "city": "COVINGTON ", "web1": "", "Distance": "273.92464556462403"}, {"Name": "MOSS RUN BAPTIST CHURCH", "Pastor": "PASTOR FRANK SIZEMORE JR", "zip": "24426", "tags": "AMBASSADOR-", "city": "COVINGTON ", "web1": "", "Distance": "273.92464556462403"}, {"Name": "BLUESTONE INDEPENDENT BAPTIST CHURCH", "Pastor": "PASTOR DR RYAN MCGUIRE", "zip": "23927", "tags": "KJB,UNAFFILIATED", "city": "CLARKSVILLE ", "web1": "http://www.ourbaptistheritage.org", "Distance": "279.0786883700787"}, {"Name": "BRENTWOOD BAPTIST CHURCH", "Pastor": "PASTOR JESSE H POWELL", "zip": "24064", "tags": "KJB,BBF,S.GRACE", "city": "ROANOKE ", "web1": "http://www.ibnet.org/BBCrv.htm", "Distance": "284.41154173566156"}, {"Name": "COLONIAL BAPTIST CHURCH", "Pastor": "PASTOR JOHN DOOLEY", "zip": "24064", "tags": "PREACH-", "city": "BLUE RIDGE ", "web1": "http://www.colonialbapt.org", "Distance": "284.41154173566156"}, {"Name": "CENTERVILLE BAPTIST CHURCH", "Pastor": "PASTOR TODD MCCLURE", "zip": "24592", "tags": "KJB", "city": "SOUTH BOSTON ", "web1": "http://www.centervillebc.org", "Distance": "287.39196307438056"}, {"Name": "REVELATION BAPTIST CHURCH", "Pastor": "PASTOR RUDOLPH P JACOBS", "zip": "24592", "tags": "KJB", "city": "SOUTH BOSTON ", "web1": "", "Distance": "287.39196307438056"}, {"Name": "SOUTHSIDE BAPTIST CHURCH", "Pastor": "PASTOR DONNIE GLASS", "zip": "24095", "tags": "KJB, VA-", "city": "GOODVIEW ", "web1": "http://www.southsidebaptistgoodview.com", "Distance": "291.48230827684534"}, {"Name": "FRANKLIN MEMORIAL BAPTIST CHURCH", "Pastor": "PASTOR JEFF RICHARDS", "zip": "24101", "tags": "KJB", "city": "HARDY ", "web1": "", "Distance": "296.055581260526"}, {"Name": "NEW TESTAMENT BAPTIST CHURCH", "Pastor": "PASTOR JAY RICHARDS", "zip": "24179", "tags": "NOT KJV ONLY,BBF,LIBERTY-", "city": "VINTON ", "web1": "http://www.ntbchurch.com", "Distance": "296.2558075160538"}, {"Name": "GOOD NEWS BAPTIST CHURCH", "Pastor": "PASTOR DARREN MEADOWS", "zip": "24012", "tags": "NOT KJV ONLY,BBF", "city": "ROANOKE ", "web1": "https://www.facebook.com/GNBC.309.Atherly/120761567939260", "Distance": "298.25383886641697"}, {"Name": "NEW HOPE BAPTIST CHURCH", "Pastor": "PASTOR DAVID MCNEILL", "zip": "24012", "tags": "KJB", "city": "ROANOKE ", "web1": "http://www.lifeatnewhope.com", "Distance": "298.25383886641697"}, {"Name": "HARVEST BAPTIST CHURCH", "Pastor": "PASTOR BUTCH HAMMED", "zip": "24013", "tags": "KJB", "city": "ROANOKE ", "web1": "https://www.hbcroanoke.com", "Distance": "300.100080657564"}, {"Name": "FELLOWSHIP BAPTIST CHURCH", "Pastor": "PASTOR MARK MANNING", "zip": "24013", "tags": "KJB,UNAFFILIATED", "city": "ROANOKE ", "web1": "http://www.localchurchresources.com", "Distance": "300.100080657564"}, {"Name": "OPEN BIBLE BAPTIST CHURCH", "Pastor": "PASTOR TIM KYSER", "zip": "24531", "tags": "KJB", "city": "CHATHAM ", "web1": "", "Distance": "301.9643903694788"}, {"Name": "BIBLE BAPTIST CHURCH", "Pastor": "PASTOR RICK BROWN", "zip": "24009", "tags": "KJB", "city": "ROANOKE ", "web1": "http://www.biblebaptistchurchva.org", "Distance": "301.992657088965"}, {"Name": "GRACE BAPTIST CHURCH", "Pastor": "PASTOR GARY YAT, PH D", "zip": "24017", "tags": "NOT KJV ONLY", "city": "ROANOKE ", "web1": "", "Distance": "302.97456935187165"}, {"Name": "VICTORY INDEPENDENT BAPTIST CHURCH", "Pastor": "PASTOR FOSTER COVINGTON", "zip": "24017", "tags": "KJB,COEBA,BALDWIN", "city": "ROANOKE ", "web1": "http://victoryibc.com", "Distance": "302.97456935187165"}, {"Name": "BROOKHILL BAPTIST CHURCH", "Pastor": "PASTOR NATHAN ANDERSON", "zip": "24014", "tags": "NOT KJV ONLY", "city": "ROANOKE ", "web1": "http://www.brookhillbaptist.com", "Distance": "303.99792627961983"}, {"Name": "CORNERSTONE BAPTIST CHURCH", "Pastor": "NEEDS PASTOR", "zip": "24014", "tags": "KJB,UNAFFLIATED", "city": "ROANOKE ", "web1": "http://www.cbcroanoke.com", "Distance": "303.99792627961983"}, {"Name": "CLEARBROOK BAPTIST CHURCH", "Pastor": "PASTOR BRYAN RATLIFF", "zip": "24014", "tags": "KJB", "city": "ROANOKE ", "web1": "", "Distance": "303.99792627961983"}, {"Name": "LIGHTHOUSE BAPTIST CHURCH", "Pastor": "PASTOR RICHARD RICHARDSON", "zip": "24127", "tags": "KJB", "city": "NEW CASTLE ", "web1": "", "Distance": "304.08339763371015"}, {"Name": "VICTORY BAPTIST CHURCH", "Pastor": "PASTOR DR CHAD BRANCH", "zip": "24594", "tags": "KJB", "city": "SUTHERLIN ", "web1": "", "Distance": "307.4135714002825"}, {"Name": "TEMPLE BAPTIST CHURCH", "Pastor": "PASTOR GREG S IRBY", "zip": "24153", "tags": "KJB,UNAFFILIATED", "city": "SALEM ", "web1": "http://www.templebaptch.com", "Distance": "309.15922437570987"}, {"Name": "CALVARY BAPTIST CHURCH", "Pastor": "PASTOR ROGER D COUNTS", "zip": "24153", "tags": "KJB", "city": "SALEM ", "web1": "", "Distance": "309.15922437570987"}, {"Name": "LAKESIDE BAPTIST CHURCH", "Pastor": "PASTOR ART HEARN", "zip": "24153", "tags": "NOT KJV ONLY,PROMISE KEEPERS", "city": "SALEM ", "web1": "http://www.lakeside-", "Distance": "309.15922437570987"}, {"Name": "GLENVAR BAPTIST CHURCH", "Pastor": "PASTOR MATT KING", "zip": "24153", "tags": "NOT KJV ONLY", "city": "SALEM ", "web1": "http://www.glenvarbaptist.com", "Distance": "309.15922437570987"}, {"Name": "GOSPEL BAPTIST CHURCH", "Pastor": "PASTOR SAMUEL J HUNTLEY SR", "zip": "24153", "tags": "BBF,ATLANTIC BAPTIST BIBLE COLLEGE,", "city": "SALEM ", "web1": "http://www.ourchurch.com/view/?pageID=14074", "Distance": "309.15922437570987"}, {"Name": "BEACON BAPTIST CHURCH", "Pastor": "PASTOR DON WOODARD", "zip": "24153", "tags": "KJB", "city": "SALEM ", "web1": "", "Distance": "309.15922437570987"}, {"Name": "NEW HORIZON BAPTIST CHURCH", "Pastor": "PASTOR SHAUN MINNIX", "zip": "24018", "tags": "KJB, UNAFFILIATED", "city": "ROANOKE ", "web1": "http://www.reachingroanoke.com", "Distance": "310.27833960488186"}, {"Name": "FAITH BAPTIST CHURCH", "Pastor": "PASTOR DONALD MAHAN", "zip": "24586", "tags": "KJB", "city": "RINGGOLD ", "web1": "http://fbcrva.org", "Distance": "314.77008277048833"}, {"Name": "FAITH BAPTIST CHURCH", "Pastor": "PASTOR VAN A MOORE", "zip": "24586", "tags": "KJB", "city": "RINGGOLD ", "web1": "http://faithbaptist.churchhomepage.org", "Distance": "314.77008277048833"}, {"Name": "LIGHTHOUSE BAPTIST CHURCH", "Pastor": "PASTOR MARK STUGELMEYER", "zip": "24151", "tags": "NOT KJV ONLY,PIEDMONT", "city": "ROCKY MOUNT ", "web1": "http://www.lighthousebaptistva.com", "Distance": "317.2965234058056"}, {"Name": "TIMBERLAKE BAPTIST CHURCH", "Pastor": "PASTOR WALTER H YANCEY", "zip": "24540", "tags": "KJB", "city": "DANVILLE ", "web1": "http://www.strength4today.com", "Distance": "319.1578165395655"}, {"Name": "NEW TESTAMENT BAPTIST CHURCH", "Pastor": "PASTOR LEE VON EIME", "zip": "24540", "tags": "NOT KJV ONLY", "city": "DANVILLE ", "web1": "http://victoryatntbc.org", "Distance": "319.1578165395655"}, {"Name": "WESTOVER BAPTIST CHURCH", "Pastor": "PASTOR DOUG BARBER", "zip": "24541", "tags": "NOT KJV ONLY,ABWE,BMM,FALWELL,", "city": "DANVILLE, ", "web1": "http://www.westoverministries.org", "Distance": "324.5954880359442"}, {"Name": "BRUSH ARBOR BAPTIST CHURCH", "Pastor": "PASTOR BRENT GRAGG", "zip": "24541", "tags": "KJB", "city": "DANVILLE ", "web1": "http://brusharborbaptist.org", "Distance": "324.5954880359442"}, {"Name": "SENECA BAPTIST CHURCH", "Pastor": "PASTOR JOHN S COLLINS", "zip": "24087", "tags": "KJB", "city": "ELLISTON ", "web1": "http://senecabaptist.com", "Distance": "325.354697575835"}, {"Name": "CENTRAL BAPTIST CHURCH", "Pastor": "PASTOR STAN \u201cBRO CORKY\u201d HAAK", "zip": "24054", "tags": "KJB,UNAFFILIATED", "city": "AXTON ", "web1": "http://centralbaptistministriesaxton.com", "Distance": "332.8142762828317"}, {"Name": "VICTORY BAPTIST CHURCH", "Pastor": "PASTOR RONALD RIGNEY", "zip": "24102", "tags": "KJB,HYLES", "city": "HENRY ", "web1": "", "Distance": "335.57622992832916"}, {"Name": "FAITH CHAPEL BAPTIST CHURCH", "Pastor": "PASTOR WARREN B BROWN", "zip": "24072", "tags": "KJB", "city": "CHECK ", "web1": "http://www.faith-", "Distance": "336.5559375852476"}, {"Name": "GATEWAY BAPTIST CHURCH", "Pastor": "PASTOR DR SCOTT SOUTHER", "zip": "24060", "tags": "KJB,HYLES", "city": "BLACKSBURG ", "web1": "http://www.gatewayva.org", "Distance": "337.5835150918905"}, {"Name": "MOUNTAIN VIEW BAPTIST CHURCH", "Pastor": "PASTOR CHARLES HARRISON", "zip": "24078", "tags": "KJB,UNAFFILIATED", "city": "COLLINSVILLE ", "web1": "https://www.angelfire.com/va3/mountainviewbaptist", "Distance": "339.78651317651827"}, {"Name": "LIGHTHOUSE INDEPENDENT BAPTIST CHURCH", "Pastor": "PASTOR GREGORY THOMAS", "zip": "24078", "tags": "KJB", "city": "COLLINSVILLE, ", "web1": "", "Distance": "339.78651317651827"}, {"Name": "TEMPLE BAPTIST CHURCH", "Pastor": "PASTOR DONALD A REYNOLDS", "zip": "24112", "tags": "KJB", "city": "MARTINSVILLE ", "web1": "http://www.templebaptistva.com", "Distance": "339.96129454380355"}, {"Name": "NEW BEGINNINGS BAPTIST CHURCH", "Pastor": "PASTOR DR RANDALL LENDERMAN", "zip": "24114", "tags": "KJB", "city": "MARTINSVILLE ", "web1": "http://www.nbbcchurch.com", "Distance": "340.3320026555273"}, {"Name": "FREEDOM BAPTIST CHURCH", "Pastor": "PASTOR CHIP COLEMAN", "zip": "24115", "tags": "KJB", "city": "MARTINSVILLE ", "web1": "http://www.freedombaptistchurch.com", "Distance": "340.3320026555273"}, {"Name": "STANLEYTOWNS AMAZING GRACE BAPTIST CHURCH", "Pastor": "PASTOR GREG HODGES", "zip": "24168", "tags": "KJB", "city": "STANLEYTOWN ", "web1": "http://www.stanleytownsagbc.com", "Distance": "340.9257432936471"}, {"Name": "NEW LIFE BAPTIST CHURCH", "Pastor": "PASTOR CLETUS LACKEY", "zip": "24055", "tags": "KJB,UNAFFILIATED", "city": "BASSETT ", "web1": "", "Distance": "343.1836411894005"}, {"Name": "GOSPEL BAPTIST CHURCH", "Pastor": "PASTOR HERMAN BYRD", "zip": "24055", "tags": "KJB,UNAFFILIATED", "city": "BASSETT ", "web1": "", "Distance": "343.1836411894005"}, {"Name": "NORTHSIDE BAPTIST CHURCH", "Pastor": "PASTOR RONALD L PEAL", "zip": "24055", "tags": "KJB,UNAFFILIATED", "city": "BASSETT ", "web1": "http://www.northsidebaptistva.com", "Distance": "343.1836411894005"}, {"Name": "COMMUNITY BAPTIST CHURCH", "Pastor": "PASTOR CARSON WILLIAMS", "zip": "24055", "tags": "KJB", "city": "BASSETT ", "web1": "", "Distance": "343.1836411894005"}, {"Name": "FAITH BAPTIST CHURCH", "Pastor": "PASTOR JOHN SHELLEY", "zip": "24055", "tags": "KJB", "city": "BASSETT ", "web1": "", "Distance": "343.1836411894005"}, {"Name": "FAITH BAPTIST CHURCH", "Pastor": "PASTOR THOMAS MCCUE SR", "zip": "24073", "tags": "KJB,BBFI", "city": "CHRISTIANBURG ", "web1": "http://www.ourchurch.com/member/f/FaithBaptVa", "Distance": "344.0327993967219"}, {"Name": "GOSPEL LIGHT BAPTIST CHURCH", "Pastor": "PASTOR KEITH WEAVER", "zip": "24073", "tags": "KJB", "city": "CHRISTIANSBURG ", "web1": "http://www.gospellightva.com", "Distance": "344.0327993967219"}, {"Name": "BIBLE BAPTIST CHURCH", "Pastor": "PASTOR DUSTY ETTER", "zip": "24073", "tags": "KJB, UNAFFILIATED", "city": "CHRISTIANSBURG ", "web1": "", "Distance": "344.0327993967219"}, {"Name": "VICTORY BAPTIST CHURCH", "Pastor": "PASTOR DAN SCHELLING", "zip": "24089", "tags": "KJB", "city": "FIELDALE ", "web1": "http://www.facebook.com/pages/Fieldale-", "Distance": "344.3459012250048"}, {"Name": "THUS SAITH THE LORD BAPTIST CHURCH", "Pastor": "PASTOR JD WALKER", "zip": "24089", "tags": "KJB, SWORD OF THE LORD", "city": "FIELDALE ", "web1": "", "Distance": "344.3459012250048"}, {"Name": "VALLEY DRIVE BAPTIST CHURCH", "Pastor": "PASTOR BOBBY RAKES", "zip": "24089", "tags": "KJB", "city": "FIELDALE ", "web1": "http://www.facebook.com/valleydrivebc", "Distance": "344.3459012250048"}, {"Name": "WAYSIDE BAPTIST CHURCH", "Pastor": "PASTOR BILLY HICKS", "zip": "24148", "tags": "KJB,HYLES", "city": "RIDGEWAY ", "web1": "http://www.waysidebaptistchurch.us", "Distance": "348.09431047928007"}, {"Name": "HIGHLAND BAPTIST CHURCH", "Pastor": "PASTOR CALVIN HOLDRUM", "zip": "24148", "tags": "NOT-", "city": "RIDGEWAY ", "web1": "", "Distance": "348.09431047928007"}, {"Name": "SOUTHSIDE INDEPENDENT BAPTIST CHURCH", "Pastor": "PASTOR DONALD THOMAS", "zip": "24148", "tags": "KJB, DISPENSATIONAL SALVATION ", "city": "RIDGEWAY ", "web1": "http://southside-", "Distance": "348.09431047928007"}, {"Name": "RIVERVIEW BAPTIST CHURCH", "Pastor": "PASTOR SHAHN WILBURN", "zip": "24150", "tags": "NOT KJV ONLY,PIEDMONT-", "city": "RIPPLEMEAD ", "web1": "http://www.rivbapch.org", "Distance": "348.9710064143737"}, {"Name": "AUBURN BAPTIST CHURCH", "Pastor": "PASTOR SHAKE SMITH", "zip": "24149", "tags": "KJB,TBC-", "city": "RINER ", "web1": "http://auburnbaptist.com", "Distance": "351.97543085998205"}, {"Name": "GETHSEMANE BAPTIST CHURCH", "Pastor": "PASTOR JERRY C GIBSON", "zip": "24141", "tags": "KJB", "city": "BROOKNEAL ", "web1": "http://gbcradfordyouth.weebly.com", "Distance": "355.0260915574544"}, {"Name": "CALVARY BAPTIST CHURCH", "Pastor": "PASTOR OLIN D MORGAN", "zip": "24141", "tags": "NOT KJV ONLY", "city": "RADFORD ", "web1": "http://www.cbcradford.org", "Distance": "355.0260915574544"}, {"Name": "NEW RIVER BAPTIST TEMPLE", "Pastor": "PASTOR BOB FERGUSON", "zip": "24141", "tags": "BBF", "city": "FAIRLAWN ", "web1": "", "Distance": "355.0260915574544"}, {"Name": "NEW BEGINNINGS BAPTIST CHURCH", "Pastor": "PASTOR MARK WRIGHT", "zip": "24133", "tags": "KJB, RUCKMAN,BILL TUCKER,CARL LACKEY", "city": "PATRICK SPRINGS ", "web1": "", "Distance": "357.81834607452146"}, {"Name": "GOODWILL BAPTIST CHURCH", "Pastor": "PASTOR DAVID A BISHOP", "zip": "24133", "tags": "KJB", "city": "PATRICK SPRINGS ", "web1": "", "Distance": "357.81834607452146"}, {"Name": "TRUE GOSPEL BAPTIST CHURCH", "Pastor": "PASTOR DR CLINT HOPKINS", "zip": "24171", "tags": "NOT KJV ONLY,BBF", "city": "STUART ", "web1": "", "Distance": "366.01543043649696"}, {"Name": "CALVARY BAPTIST CHURCH", "Pastor": "PASTOR DAVID FREEMAN", "zip": "24171", "tags": "KJB,UNAFFILIATED", "city": "STUART ", "web1": "", "Distance": "366.01543043649696"}, {"Name": "MAX CREEK BAPTIST CHURCH", "Pastor": "PASTOR MICHAEL W COLEMAN", "zip": "24347", "tags": "KJB,BMM", "city": "DRAPER ", "web1": "http://www.maxcreek.org", "Distance": "372.45993190413907"}, {"Name": "SNOWVILLE BAPTIST CHURCH", "Pastor": "PASTOR NEIL WOOD", "zip": "24347", "tags": "NOT KJV ONLY", "city": "HIWASSEE ", "web1": "http://snowvillebaptistchurch.com", "Distance": "372.45993190413907"}, {"Name": "OPEN DOOR BAPTIST CHURCH", "Pastor": "PASTOR N K HOWLETT", "zip": "24301", "tags": "BBF", "city": "PULASKI ", "web1": "", "Distance": "374.6932985531382"}, {"Name": "TRINITY BAPTIST CHURCH", "Pastor": "PASTOR JERRY WHITLOW", "zip": "24076", "tags": "KJB", "city": "CLAUDVILLE ", "web1": "", "Distance": "382.39484150670125"}, {"Name": "VICTORY WAY BAPTIST CHURCH", "Pastor": "PASTOR MIKE COLIN", "zip": "24343", "tags": "KJB", "city": "HILLSVILLE ", "web1": "http://www.victorywaybaptistchurch.org", "Distance": "391.570599714695"}, {"Name": "FELLOWSHIP BAPTIST CHURCH", "Pastor": "PASTOR ANDREW DAVIS", "zip": "24382", "tags": "KJB", "city": "WYTHEVILLE ", "web1": "http://www.gofbc.com", "Distance": "405.72397346595494"}, {"Name": "LANDMARK BAPTIST CHURCH", "Pastor": "PASTOR DR RONNIE HARRISON", "zip": "24333", "tags": "KJB,HYLES", "city": "GALAX ", "web1": "http://www.landmarkbaptistgalax.com", "Distance": "411.0446033406186"}, {"Name": "RURAL RETREAT BAPTIST CHURCH", "Pastor": "PASTOR JACOB VANOVER", "zip": "24368", "tags": "KJB", "city": "RURAL RETREAT ", "web1": "", "Distance": "423.62044041513576"}, {"Name": "FREEDOM TABERNACLE BAPTIST CHURCH", "Pastor": "PASTOR MIKE SAGE", "zip": "24311", "tags": "KJB,BBF", "city": "ATKINS ", "web1": "http://www.freedomtabernacleministries.org", "Distance": "433.39716085121523"}, {"Name": "GETHSEMANE BAPTIST CHURCH", "Pastor": "PASTOR PAT GILBERT", "zip": "24354", "tags": "KJB,UNAFFILIATED", "city": "MARION ", "web1": "", "Distance": "445.5092958146325"}, {"Name": "CALVARY BAPTIST CHURCH", "Pastor": "PASTOR TIM SAMPLES", "zip": "24609", "tags": "KJB", "city": "CEDAR BLUFF ", "web1": "", "Distance": "448.2501415816678"}, {"Name": "BAPTIST BIBLE CHURCH", "Pastor": "PASTOR ANDY MAYNARD", "zip": "24634", "tags": "BBF", "city": "PILGRIMS KNOB ", "web1": "", "Distance": "450.3938229196631"}, {"Name": "JOY BAPTIST CHURCH", "Pastor": "PASTOR JAY OVERBAY", "zip": "24319", "tags": "KJB,UNAFFILIATED,CROWN-", "city": "CHILHOWIE ", "web1": "http://joybaptistchurch.net", "Distance": "458.60148547398575"}, {"Name": "GRACE BAPTIST CHURCH", "Pastor": "PASTOR DEAN POWERS", "zip": "24614", "tags": "KJB", "city": "GRUNDY ", "web1": "", "Distance": "465.8021808407076"}, {"Name": "GALILEAN BAPTIST CHURCH", "Pastor": "PASTOR JOHN SURBER", "zip": "24361", "tags": "BBF", "city": "MEADOWVIEW ", "web1": "", "Distance": "473.3220348424297"}, {"Name": "HIGH POINT BAPTIST CHURCH", "Pastor": "PASTOR ROBBIE COGGINS", "zip": "24361", "tags": "KJB", "city": "MEADOWVIEW ", "web1": "https://www.facebook.com/High-", "Distance": "473.3220348424297"}, {"Name": "SPRING CITY BAPTIST CHURCH", "Pastor": "PASTOR SCOTT SUTTLE", "zip": "24225", "tags": "KJB,FUNDAMENTAL,MISSION-", "city": "CLEVELAND ", "web1": "http://www.springcitybaptist.org", "Distance": "484.6511770337614"}, {"Name": "COPPER RIDGE BAPTIST CHURCH", "Pastor": "PASTOR DUANE MUSICK", "zip": "24225", "tags": "KJV", "city": "CLEVELAND ", "web1": "", "Distance": "484.6511770337614"}, {"Name": "HANSONVILLE BAPTIST CHURCH", "Pastor": "PASTOR MIKE BELCHER", "zip": "24266", "tags": "REFORMED,FOUNDERS,TULIP", "city": "LEBANON ", "web1": "", "Distance": "485.4769804809667"}, {"Name": "EMMANUEL BAPTIST CHURCH", "Pastor": "PASTOR BRYAN TREADWAY", "zip": "24212", "tags": "KJB", "city": "ABINGDON ", "web1": "http://emmanuelbaptistva.com", "Distance": "486.4939076049957"}, {"Name": "CALVARY BAPTIST CHURCH", "Pastor": "PASTOR CLIFTON D CAUTHORNE JR", "zip": "24228", "tags": "BBF, BJU", "city": "CLINTWOOD ", "web1": "http://www.calvaryofclintwood.com", "Distance": "499.45641702254744"}, {"Name": "VICTORY BAPTIST CHURCH", "Pastor": "PASTOR AUSTIN COOK", "zip": "24202", "tags": "KJB", "city": "BRISTOL ", "web1": "http://www.victorybaptistbristol.org", "Distance": "506.67537287351263"}, {"Name": "CALVARY BIBLE CHURCH", "Pastor": "PASTOR JOSIAH HILL", "zip": "24202", "tags": "KJB", "city": "BRISTOL ", "web1": "http://calvarybiblebristol.org", "Distance": "506.67537287351263"}, {"Name": "BENHAMS BAPTIST CHURCH", "Pastor": "PASTOR JEFF KEENE", "zip": "24202", "tags": "KJB", "city": "BRISTOL ", "web1": "", "Distance": "506.67537287351263"}, {"Name": "FREEDOM BAPTIST CHURCH", "Pastor": "PASTOR GARY GARLAND", "zip": "24201", "tags": "KJB", "city": "BRISTOL ", "web1": "", "Distance": "506.8131844872141"}, {"Name": "BEAVERVIEW MISSIONARY BAPTIST CHURCH", "Pastor": "PASTOR BOBBY BURROW", "zip": "24201", "tags": "BBF", "city": "BRISTOL ", "web1": "", "Distance": "506.8131844872141"}, {"Name": "COMMUNITY BAPTIST CHURCH", "Pastor": "PASTOR MIKE CARMODY", "zip": "24201", "tags": "KJB", "city": "BRISTOL ", "web1": "https://www.facebook.com/pages/Community-", "Distance": "506.8131844872141"}, {"Name": "BELLE MEADOWS BAPTIST CHURCH", "Pastor": "PASTOR DEWEY W WILLIAMS", "zip": "24201", "tags": "KJB,CROWN-", "city": "BRISTOL ", "web1": "http://bellemeadows.org", "Distance": "506.8131844872141"}, {"Name": "GREENWOOD CHAPEL BAPTIST CHURCH", "Pastor": "PASTOR NOAH EDWARD TAYLOR III", "zip": "24271", "tags": "KJB", "city": "NICKELSVILLE ", "web1": "", "Distance": "517.7988262886998"}, {"Name": "OAK GLEN BAPTIST CHURCH", "Pastor": "PASTOR DANNY SYKES", "zip": "24251", "tags": "KJB", "city": "GATE CITY ", "web1": "http://www.oakglenbaptistchurch.org", "Distance": "538.3109519680394"}, {"Name": "TRINITY BAPTIST CHURCH", "Pastor": "PASTOR DR VINTON WILLIAMS", "zip": "22186", "tags": "KJB", "city": "WARRENTON ", "web1": "http://tbcwarrenton.org", "Distance": ""}, {"Name": "TABERNACLE BAPTIST CHURCH", "Pastor": "PASTOR EUGENE ZORBAS", "zip": "22110", "tags": "KJB,BBF", "city": "MANASSAS ", "web1": "http://www.tbcmanassas.org", "Distance": ""}, {"Name": "VICTORY BAPTIST CHURCH", "Pastor": "PASTOR ZACHARY A MORRISON", "zip": "22123", "tags": "KJB", "city": "NOKESVILLE ", "web1": "http://www.vbcnokesville.com", "Distance": ""}, {"Name": "FIRST BIBLE BAPTIST CHURCH", "Pastor": "PASTOR DENVER TURNER", "zip": "22111", "tags": "KJB, BBF", "city": "MANASSAS PARK ", "web1": "", "Distance": ""}, {"Name": "MARANATHA BAPTIST CHURCH", "Pastor": "PASTOR ALBERT PAYNE", "zip": "22002", "tags": "KJV", "city": "AMISSVILLE ", "web1": "", "Distance": ""}, {"Name": "HERITAGE BAPTIST CHURCH", "Pastor": "PASTOR DAVID J BARTON", "zip": "22011", "tags": "KJV & KJV NEW SCHOFIELD", "city": "ASHBURN ", "web1": "http://www.heritagebaptistchurch.us", "Distance": ""}]